HYPERFIELD-1A           
1 60562U 24149CY  26068.76488211  .00008569  00000+0  30052-3 0  9998
2 60562  97.3842 149.5066 0003865 313.7844  46.3076 15.29681349 86836
STARLINK-34449          
1 64465U 25130AD  26068.44372734  .00036093  00000+0  12261-2 0  9996
2 64465  53.1607  89.7934 0001096  84.6516 275.4610 15.30167062 40667
